{
    "links": {
        "self": "http://www.neowsapp.com/rest/v1/neo/3092289?api_key=iIulBulltgU6a56xZRHN4H3l9WmuAYTsLGpBGhQ2"
    },
    "id": "3092289",
    "neo_reference_id": "3092289",
    "name": "(2001 CA21)",
    "designation": "2001 CA21",
    "nasa_jpl_url": "http://ssd.jpl.nasa.gov/sbdb.cgi?sstr=3092289",
    "absolute_magnitude_h": 18.775,
    "estimated_diameter": {
        "kilometers": {
            "estimated_diameter_min": 0.4672560966,
            "estimated_diameter_max": 1.0448163949
        },
        "meters": {
            "estimated_diameter_min": 467.2560965902,
            "estimated_diameter_max": 1044.8163948769
        },
        "miles": {
            "estimated_diameter_min": 0.290339388,
            "estimated_diameter_max": 0.6492186081
        },
        "feet": {
            "estimated_diameter_min": 1532.9924919371,
            "estimated_diameter_max": 3427.8754209681
        }
    },
    "is_potentially_hazardous_asteroid": true,
    "close_approach_data": [
        {
            "close_approach_date": "2001-02-12",
            "close_approach_date_full": "2001-Feb-12 07:22",
            "epoch_date_close_approach": 981962520000,
            "relative_velocity": {
                "kilometers_per_second": "31.2933769069",
                "kilometers_per_hour": "112656.1568649527",
                "miles_per_hour": "70000.1548031146"
            },
            "miss_distance": {
                "astronomical": "0.1718670467",
                "lunar": "66.8562811663",
                "kilometers": "25710944.109510529",
                "miles": "15976039.8508381402"
            },
            "orbiting_body": "Earth"
        }
    ],
    "orbital_data": {
        "orbit_id": "12",
        "orbit_determination_date": "2017-04-06 09:16:32",
        "first_observation_date": "2001-02-02",
        "last_observation_date": "2001-02-04",
        "data_arc_in_days": 2,
        "observations_used": 13,
        "orbit_uncertainty": "9",
        "minimum_orbit_intersection": ".0374655",
        "jupiter_tisserand_invariant": "3.839",
        "epoch_osculation": "2451943.5",
        "eccentricity": ".7753789280052502",
        "semi_major_axis": "1.663866162461334",
        "inclination": "4.95654724000439",
        "ascending_node_longitude": "46.64215596556536",
        "orbital_period": "783.927701769413",
        "perihelion_distance": ".3737394010678554",
        "perihelion_argument": "218.6393108200826",
        "aphelion_distance": "2.953992923854813",
        "perihelion_time": "2451995.133950443981",
        "mean_anomaly": "336.2883463387281",
        "mean_motion": ".4592260219755463",
        "equinox": "J2000",
        "orbit_class": {
            "orbit_class_type": "APO",
            "orbit_class_description": "Near-Earth asteroid orbits which cross the Earth’s orbit similar to that of 1862 Apollo",
            "orbit_class_range": "a (semi-major axis) > 1.0 AU; q (perihelion) < 1.017 AU"
        }
    },
    "is_sentry_object": false
}